OBJECT_NAME,OBJECT_ID,EPOCH,MEAN_MOTION,ECCENTRICITY,INCLINATION,RA_OF_ASC_NODE,ARG_OF_PERICENTER,MEAN_ANOMALY,EPHEMERIS_TYPE,CLASSIFICATION_TYPE,NORAD_CAT_ID,ELEMENT_SET_NO,REV_AT_EPOCH,BSTAR,MEAN_MOTION_DOT,MEAN_MOTION_DDOT
CUTE-1 (CO-55),2003-031E,2026-06-29T23:06:24.280128,14.24343456,.00103009,98.6736,189.3610,142.4898,217.7002,0,U,27844,999,19349,.1534011E-3,.311E-5,0
CUBESAT XI-IV (CO-57),2003-031J,2026-06-29T22:59:01.208832,14.23627529,.00097859,98.6768,189.0585,160.0224,200.1339,0,U,27848,999,19319,.13524458E-3,.265E-5,0
PROBA-2,2009-059B,2026-06-30T12:20:21.731424,14.54868053,.00121361,98.2451,4.6822,236.5404,123.4633,0,U,36037,999,88346,.54440881E-4,.189E-5,0
APRIZESAT 5,2011-044E,2026-06-30T09:12:39.069792,14.81103393,.00513015,98.2451,114.7984,321.5684,38.1878,0,U,37792,999,80074,.14292989E-3,.1075E-4,0
APRIZESAT 6,2011-044F,2026-06-30T07:14:16.274400,14.76935873,.00441291,98.2354,92.0685,45.2799,76.8723,0,U,37793,999,79908,.12307331E-3,.823E-5,0
PROBA-V,2013-021A,2026-06-30T11:21:28.368000,14.23600179,.00054352,98.3593,159.4244,93.1429,267.0372,0,U,39159,999,68300,.57481707E-4,.9E-6,0
APRIZESAT 7,2013-066A,2026-06-30T20:08:32.711136,14.91592059,.00361824,97.7714,134.8633,163.6928,196.5464,0,U,39416,999,68326,.11028071E-3,.1062E-4,0
APRIZESAT 8,2013-066K,2026-06-30T19:05:22.843392,14.87675981,.00445005,97.8225,129.0740,240.2709,119.4076,0,U,39425,999,68169,.98131959E-4,.852E-5,0
APRIZESAT 9,2014-033J,2026-06-30T07:22:29.296992,14.74233565,.0066703,97.9077,314.1862,157.0375,203.3840,0,U,40018,999,64549,.12496568E-3,.803E-5,0
APRIZESAT 10,2014-033K,2026-06-30T07:46:29.753472,14.70895441,.00777108,97.9666,307.9915,231.1992,128.2258,0,U,40019,999,64418,.99303882E-4,.583E-5,0
TECHNOSAT,2017-042E,2026-06-30T17:54:26.577216,15.05036273,.00188498,97.4293,338.8895,51.4773,308.8140,0,U,42829,999,48874,.17006107E-3,.2365E-4,0
SALSAT,2020-068K,2026-06-30T11:43:12.412704,15.29983096,.0007929,97.8843,185.3641,251.0233,109.0147,0,U,46495,999,31739,.26165469E-3,.7517E-4,0
HAWK-2C,2021-006CT,2026-06-30T17:08:00.309408,15.34825073,.00080329,97.2268,225.7545,142.5145,217.6661,0,U,47502,999,30157,.19969323E-3,.6671E-4,0
HAWK-2A,2021-006CW,2026-06-30T17:11:24.451008,15.34838978,.00074977,97.2309,226.4425,145.2826,214.8908,0,U,47505,999,30157,.19578538E-3,.654E-4,0
HAWK-2B,2021-006CZ,2026-06-30T17:03:44.319168,15.34948799,.00080895,97.2178,224.7473,143.9188,216.2603,0,U,47508,999,30157,.22073556E-3,.7412E-4,0
HAWK-3B,2021-059BE,2026-06-30T10:52:30.687744,15.70661718,.00032704,97.6640,19.4261,261.1542,98.9350,0,U,48931,999,27993,.3275922E-3,.40404E-3,0
HAWK-3C,2021-059BX,2026-06-30T01:41:35.125152,15.70634821,.00035152,97.6764,24.7146,264.4956,95.5905,0,U,48948,999,27987,.33852961E-3,.41719E-3,0
HAWK-3A,2021-059CG,2026-06-30T12:23:36.682656,15.70661079,.0003467,97.6702,22.3981,264.4395,95.6471,0,U,48957,999,27994,.34048196E-3,.42008E-3,0
